ONEWEB-0128             
1 47274U 20100S   25359.13362461  .00000147  00000+0  37332-3 0  9999
2 47274  87.8921  25.2686 0001860  84.8398 275.2942 13.12442481241913
ONEWEB-0129             
1 47275U 20100T   25359.11330229 -.00000337  00000+0 -97104-3 0  9991
2 47275  87.8933  25.2280 0000616 106.8010 253.3186 13.12442081241846
ONEWEB-0130             
1 47276U 20100U   25359.14043385  .00000404  00000+0  10873-2 0  9999
2 47276  87.8933  25.2174 0001692  91.2626 268.8696 13.12442610241816
ONEWEB-0131             
1 47277U 20100V   25359.06078904  .00000156  00000+0  39965-3 0  9994
2 47277  87.8933  25.2634 0001763  93.9328 266.2002 13.12442168241849
ONEWEB-0132             
1 47278U 20100W   25359.01335270 -.00000409  00000+0 -11728-2 0  9991
2 47278  87.8930  25.2740 0001799  91.8545 268.2789 13.12442355241732
ONEWEB-0133             
1 47279U 20100X   25359.10638708 -.00000414  00000+0 -11858-2 0  9994
2 47279  87.8927  25.2173 0001827  89.0840 271.0498 13.12441985241904
ONEWEB-0134             
1 47280U 20100Y   25358.99982366  .00000736  00000+0  20095-2 0  9992
2 47280  87.8931  25.2340 0001668  85.2261 274.9058 13.12439835241865
ONEWEB-0135             
1 47281U 20100Z   25359.04724419  .00000271  00000+0  71791-3 0  9997
2 47281  87.8933  25.2645 0001766  82.5724 277.5605 13.12441591241891
